{
    "links": {
        "self": "http://www.neowsapp.com/rest/v1/neo/54053757?api_key=iIulBulltgU6a56xZRHN4H3l9WmuAYTsLGpBGhQ2"
    },
    "id": "54053757",
    "neo_reference_id": "54053757",
    "name": "(2020 RB1)",
    "designation": "2020 RB1",
    "nasa_jpl_url": "http://ssd.jpl.nasa.gov/sbdb.cgi?sstr=54053757",
    "absolute_magnitude_h": 26.731,
    "estimated_diameter": {
        "kilometers": {
            "estimated_diameter_min": 0.011977191,
            "estimated_diameter_max": 0.0267818133
        },
        "meters": {
            "estimated_diameter_min": 11.9771910362,
            "estimated_diameter_max": 26.7818133364
        },
        "miles": {
            "estimated_diameter_min": 0.0074422792,
            "estimated_diameter_max": 0.0166414421
        },
        "feet": {
            "estimated_diameter_min": 39.2952474391,
            "estimated_diameter_max": 87.8668444665
        }
    },
    "is_potentially_hazardous_asteroid": false,
    "close_approach_data": [
        {
            "close_approach_date": "2020-09-13",
            "close_approach_date_full": "2020-Sep-13 00:49",
            "epoch_date_close_approach": 1599958140000,
            "relative_velocity": {
                "kilometers_per_second": "7.7484772373",
                "kilometers_per_hour": "27894.5180543765",
                "miles_per_hour": "17332.5687321763"
            },
            "miss_distance": {
                "astronomical": "0.0300648923",
                "lunar": "11.6952431047",
                "kilometers": "4497643.849859401",
                "miles": "2794706.2960496938"
            },
            "orbiting_body": "Earth"
        }
    ],
    "orbital_data": {
        "orbit_id": "2",
        "orbit_determination_date": "2020-09-09 06:30:41",
        "first_observation_date": "2020-09-06",
        "last_observation_date": "2020-09-09",
        "data_arc_in_days": 3,
        "observations_used": 20,
        "orbit_uncertainty": "8",
        "minimum_orbit_intersection": ".0296715",
        "jupiter_tisserand_invariant": "4.180",
        "epoch_osculation": "2459099.5",
        "eccentricity": ".3789431132456392",
        "semi_major_axis": "1.64851068614499",
        "inclination": "10.67471724838877",
        "ascending_node_longitude": "166.8456780305623",
        "orbital_period": "773.1007185921299",
        "perihelion_distance": "1.023818914518503",
        "perihelion_argument": "198.6371012580919",
        "aphelion_distance": "2.273202457771478",
        "perihelion_time": "2459119.261162182114",
        "mean_anomaly": "350.798070400819",
        "mean_motion": ".4656573087340871",
        "equinox": "J2000",
        "orbit_class": {
            "orbit_class_type": "AMO",
            "orbit_class_description": "Near-Earth asteroid orbits similar to that of 1221 Amor",
            "orbit_class_range": "1.017 AU < q (perihelion) < 1.3 AU"
        }
    },
    "is_sentry_object": false
}